{
  "persons": [
    {
      "name": "Ashok Sitaram Mane",
      "address": "sashtpimplegaon",
      "city": "Pune",
      "state": "Maharastra",
      "zipcode": "431005",
      "phoneNumber": "7350256275",
      "id": "OZONQtz"
    },
    {
      "name": "Rajiv",
      "address": "saxena nagar",
      "city": "Pune",
      "state": "Maharastra",
      "zipcode": "431005",
      "phoneNumber": "8745885965",
      "id": "fIvQpQI"
    },
    {
      "name": "Rajiv",
      "address": "saxena nagar",
      "city": "Pune",
      "state": "Maharastra",
      "zipcode": "431005",
      "phoneNumber": "8745885965",
      "id": "wPJwBFt"
    },
    {
      "name": "Rajiv",
      "address": "saxena nagar",
      "city": "Pune",
      "state": "Maharastra",
      "zipcode": "431005",
      "phoneNumber": "8745885965",
      "id": "UKsrMdI"
    },
    {
      "name": "Satish",
      "address": "Aurangabad",
      "city": "Mysore",
      "state": "Maharastra",
      "zipcode": "431005",
      "phoneNumber": "8459214148",
      "id": "ct86Kkf"
    },
    {
      "name": "Ashok",
      "address": "shjsjsj",
      "city": "Mumbai",
      "state": "Maharastra",
      "zipcode": "431212",
      "phoneNumber": "8454655651",
      "id": "wc7ItPv"
    },
    {
      "name": "Rajiv",
      "address": "saxena nagar",
      "city": "Lucknow",
      "state": "Tamil Nadu",
      "zipcode": "431005",
      "phoneNumber": "8745885965",
      "id": "baWdfDw"
    },
    {
      "name": "Rajiv",
      "address": "saxena nagar",
      "city": "Pune",
      "state": "Maharastra",
      "zipcode": "431005",
      "phoneNumber": "8745885965",
      "id": "YaGqP_G"
    },
    {
      "name": "Ashok",
      "address": "shjsjsj",
      "city": "Mumbai",
      "state": "Maharastra",
      "zipcode": "431212",
      "phoneNumber": "8454655651",
      "id": "gP1eJDb"
    },
    {
      "name": "Satish",
      "address": "Aurangabad",
      "city": "Mysore",
      "state": "Maharastra",
      "zipcode": "431005",
      "phoneNumber": "8459214148",
      "id": "2pbugxx"
    },
    {
      "name": "Satish",
      "address": "Aurangabad",
      "city": "Mysore",
      "state": "Maharastra",
      "zipcode": "431005",
      "phoneNumber": "8459214148",
      "id": "JExIKM2"
    },
    {
      "name": "Rajiv",
      "address": "saxena nagar",
      "city": "Pune",
      "state": "Maharastra",
      "zipcode": "431005",
      "phoneNumber": "8745885965",
      "id": "ADzIbpX"
    },
    {
      "name": "Ashok",
      "address": "shjsjsj",
      "city": "Mumbai",
      "state": "Maharastra",
      "zipcode": "431212",
      "phoneNumber": "8454655651",
      "id": "27-zXXZ"
    },
    {
      "name": "Ashok",
      "address": "shjsjsj",
      "city": "Mumbai",
      "state": "Maharastra",
      "zipcode": "431212",
      "phoneNumber": "8454655651",
      "id": "NYly6qu"
    },
    {
      "name": "Rajiv",
      "address": "saxena nagar",
      "city": "Pune",
      "state": "Maharastra",
      "zipcode": "431005",
      "phoneNumber": "8745885965",
      "id": "n7hgwQv"
    },
    {
      "name": "Rajiv",
      "address": "saxena nagar",
      "city": "Pune",
      "state": "Maharastra",
      "zipcode": "431005",
      "phoneNumber": "8745885965",
      "id": "9UIX0T-"
    },
    {
      "name": "hsjsjsh",
      "address": "shshsghsgh",
      "city": "Mumbai",
      "state": "Punjab",
      "zipcode": "788787",
      "phoneNumber": "4545454545454",
      "id": "gu-NZhv"
    },
    {
      "name": "Rajiv",
      "address": "saxena nagar",
      "city": "Pune",
      "state": "Maharastra",
      "zipcode": "431005",
      "phoneNumber": "8745885965",
      "id": "ghvf_OG"
    }
  ]
}